     2              NAVIGATION DATA                         RINEX VERSION / TYPE
CCRINEXN V1.6.0 UX  CDDIS               01-APR-18 12:09     PGM / RUN BY / DATE 
IGS BROADCAST EPHEMERIS FILE                                COMMENT             
    0.1118D-07  0.7451D-08 -0.5960D-07 -0.5960D-07          ION ALPHA           
    0.9011D+05  0.1638D+05 -0.1966D+06 -0.6554D+05          ION BETA            
    0.000000000000D+00 0.888178419700D-15   233472     1995 DELTA-UTC: A0,A1,T,W
    18                                                      LEAP SECONDS        
                                                            END OF HEADER       
12 18  4  1 16  0  0.0 0.342068262398D-03-0.216004991671D-11 0.000000000000D+00
    0.190000000000D+02-0.101187500000D+03 0.405231181944D-08 0.165739703651D+01
   -0.541098415852D-05 0.714670808520D-02 0.702776014805D-05 0.515361930656D+04
    0.576000000000D+05-0.117346644402D-06 0.250182248441D+01-0.540167093277D-07
    0.987090705318D+00 0.260375000000D+03 0.947927569102D+00-0.798997579210D-08
   -0.607525307839D-09 0.100000000000D+01 0.199500000000D+04 0.000000000000D+00
    0.200000000000D+01 0.000000000000D+00-0.125728547573D-07 0.190000000000D+02
    0.504300000000D+05 0.000000000000D+00 0.000000000000D+00 0.000000000000D+00
13 18  4  1 16  0  0.0-0.953176058829D-04 0.227373675443D-12 0.000000000000D+00
    0.520000000000D+02 0.619375000000D+02 0.410231373498D-08-0.258693623884D+01
    0.316463410854D-05 0.356005644426D-02 0.130385160446D-04 0.515366925812D+04
    0.576000000000D+05 0.484287738800D-07 0.462922226020D+00 0.223517417908D-07
    0.969046245717D+00 0.130031250000D+03 0.160717639010D+01-0.776210903728D-08
    0.260725145963D-09 0.100000000000D+01 0.199500000000D+04 0.000000000000D+00
    0.200000000000D+01 0.000000000000D+00-0.111758708954D-07 0.520000000000D+02
    0.504000000000D+05 0.400000000000D+01 0.000000000000D+00 0.000000000000D+00
14 18  4  1 16  0  0.0-0.957460142672D-04-0.341060513165D-12 0.000000000000D+00
    0.570000000000D+02 0.566250000000D+02 0.429696456194D-08-0.151824537039D+01
    0.308081507683D-05 0.953857123386D-02 0.118035823107D-04 0.515375735092D+04
    0.576000000000D+05 0.163912773132D-06 0.421419655580D+00 0.163912773132D-06
    0.961614948105D+00 0.151468750000D+03-0.195748305949D+01-0.782532616483D-08
    0.203579902935D-09 0.100000000000D+01 0.199500000000D+04 0.000000000000D+00
    0.200000000000D+01 0.000000000000D+00-0.977888703346D-08 0.570000000000D+02
    0.504300000000D+05 0.000000000000D+00 0.000000000000D+00 0.000000000000D+00
15 18  4  1 16  0  0.0-0.355908181518D-03 0.341060513165D-12 0.000000000000D+00
    0.104000000000D+03 0.283125000000D+02 0.496270671665D-08-0.202739935236D+01
    0.118277966976D-05 0.102012939751D-01 0.130031257868D-04 0.515372303581D+04
    0.576000000000D+05 0.949949026108D-07 0.262810633335D+00-0.109896063805D-06
    0.928899692081D+00 0.107562500000D+03 0.672285703238D+00-0.810212320024D-08
    0.157149403046D-09 0.100000000000D+01 0.199500000000D+04 0.000000000000D+00
    0.200000000000D+01 0.000000000000D+00-0.107102096081D-07 0.104000000000D+03
    0.504000000000D+05 0.400000000000D+01 0.000000000000D+00 0.000000000000D+00
16 18  4  1 16  0  0.0 0.288267619908D-04-0.102318153950D-11 0.000000000000D+00
    0.900000000000D+02-0.915625000000D+02 0.407552702697D-08-0.239970489814D+00
   -0.482052564621D-05 0.100300218910D-01 0.694766640663D-05 0.515360701942D+04
    0.576000000000D+05 0.353902578354D-07 0.252071484109D+01 0.113621354103D-06
    0.987540407799D+00 0.257125000000D+03 0.493378714587D+00-0.808283662224D-08
   -0.592167537228D-09 0.100000000000D+01 0.199500000000D+04 0.000000000000D+00
    0.200000000000D+01 0.000000000000D+00-0.107102096081D-07 0.900000000000D+02
    0.504300000000D+05 0.000000000000D+00 0.000000000000D+00 0.000000000000D+00
17 18  4  1 16  0  0.0-0.110722612590D-03 0.329691829393D-11 0.000000000000D+00
    0.980000000000D+02 0.971875000000D+01 0.374229873891D-08-0.130296429737D+01
    0.551342964172D-06 0.122850058833D-01 0.136885792017D-04 0.515379110336D+04
    0.576000000000D+05 0.521540641785D-07-0.274762235606D+01 0.335276126862D-06
    0.982618731523D+00 0.128843750000D+03-0.178214897615D+01-0.768674875537D-08
    0.150363406097D-09 0.100000000000D+01 0.199500000000D+04 0.000000000000D+00
    0.280000000000D+01 0.000000000000D+00-0.111758708954D-07 0.980000000000D+02
    0.504000000000D+05 0.400000000000D+01 0.000000000000D+00 0.000000000000D+00
18 18  4  1 16  0  0.0-0.864546746015D-05 0.477484718431D-11 0.000000000000D+00
    0.480000000000D+02 0.593750000000D+02 0.494663461862D-08 0.265760883694D+01
    0.299140810967D-05 0.143269979162D-01 0.456348061562D-05 0.515366667366D+04
    0.576000000000D+05 0.173225998878D-06-0.179080165675D+01-0.372529029846D-07
    0.948602120629D+00 0.282781250000D+03 0.129721363955D+01-0.819462705340D-08
    0.438232539859D-09 0.100000000000D+01 0.199500000000D+04 0.000000000000D+00
    0.200000000000D+01 0.000000000000D+00-0.651925802231D-08 0.480000000000D+02
    0.504000000000D+05 0.400000000000D+01 0.000000000000D+00 0.000000000000D+00
19 18  4  1 16  0  0.0-0.446781050414D-03 0.272848410532D-11 0.000000000000D+00
    0.560000000000D+02 0.600000000000D+01 0.374372755019D-08 0.173136658383D+01
    0.689178705216D-07 0.977338769008D-02 0.138301402330D-04 0.515371438408D+04
    0.576000000000D+05-0.987201929092D-07-0.270054317701D+01-0.169500708580D-06
    0.980069317352D+00 0.126781250000D+03 0.114538578973D+01-0.764460406089D-08
    0.192150864664D-09 0.100000000000D+01 0.199500000000D+04 0.000000000000D+00
    0.200000000000D+01 0.000000000000D+00-0.153668224812D-07 0.560000000000D+02
    0.504300000000D+05 0.000000000000D+00 0.000000000000D+00 0.000000000000D+00
20 18  4  1 16  0  0.0 0.504695344716D-03 0.102318153950D-11 0.000000000000D+00
    0.210000000000D+02-0.680937500000D+02 0.550130057982D-08-0.266433010434D+01
   -0.344403088093D-05 0.428927235771D-02 0.517442822456D-05 0.515482410049D+04
    0.576000000000D+05 0.391155481338D-07-0.809258009096D+00 0.353902578354D-07
    0.928102460244D+00 0.255937500000D+03 0.190875507668D+01-0.861035865600D-08
   -0.351443210449D-09 0.100000000000D+01 0.199500000000D+04 0.000000000000D+00
    0.200000000000D+01 0.000000000000D+00-0.838190317154D-08 0.210000000000D+02
    0.504900000000D+05 0.400000000000D+01 0.000000000000D+00 0.000000000000D+00
21 18  4  1 16  0  0.0-0.412642955780D-03 0.454747350886D-11 0.000000000000D+00
    0.270000000000D+02 0.490000000000D+02 0.534022248644D-08 0.115773343275D+01
    0.212341547012D-05 0.244995348621D-01 0.555813312530D-05 0.515372900581D+04
    0.576000000000D+05-0.361353158951D-06-0.179759249029D+01-0.454485416412D-06
    0.942832389279D+00 0.267593750000D+03-0.157373402283D+01-0.883679707186D-08
    0.388230447790D-09 0.100000000000D+01 0.199500000000D+04 0.000000000000D+00
    0.200000000000D+01 0.000000000000D+00-0.102445483208D-07 0.270000000000D+02
    0.504300000000D+05 0.000000000000D+00 0.000000000000D+00 0.000000000000D+00
23 18  4  1 16  0  0.0-0.218256376684D-03 0.227373675443D-12 0.000000000000D+00
    0.330000000000D+02 0.476250000000D+02 0.461233497941D-08-0.248774796462D+01
    0.206939876080D-05 0.121936436044D-01 0.131204724312D-04 0.515358052445D+04
    0.576000000000D+05 0.156462192535D-06 0.331010229870D+00-0.162050127983D-06
    0.944158357745D+00 0.116781250000D+03-0.237989935581D+01-0.789961476495D-08
    0.213223167315D-09 0.100000000000D+01 0.199500000000D+04 0.000000000000D+00
    0.200000000000D+01 0.000000000000D+00-0.200234353542D-07 0.330000000000D+02
    0.504000000000D+05 0.400000000000D+01 0.000000000000D+00 0.000000000000D+00
24 18  4  1 16  0  0.0-0.480036251247D-04-0.454747350886D-12 0.000000000000D+00
    0.290000000000D+02 0.795000000000D+02 0.535808032841D-08-0.310059793223D+01
    0.400654971600D-05 0.690397550352D-02 0.394321978092D-05 0.515365083504D+04
    0.576000000000D+05-0.139698386192D-06 0.135127041265D+01-0.130385160446D-06
    0.941900476816D+00 0.293187500000D+03 0.541180379135D+00-0.858107172180D-08
    0.338585532018D-09 0.100000000000D+01 0.199500000000D+04 0.000000000000D+00
    0.200000000000D+01 0.000000000000D+00 0.279396772385D-08 0.290000000000D+02
    0.504000000000D+05 0.400000000000D+01 0.000000000000D+00 0.000000000000D+00
25 18  4  1 16  0  0.0-0.562777742744D-03-0.602540239925D-11 0.000000000000D+00
    0.100000000000D+03-0.897500000000D+02 0.446911485596D-08 0.119975383669D+01
   -0.461749732494D-05 0.741470034700D-02 0.611692667007D-05 0.515366416359D+04
    0.576000000000D+05-0.726431608200D-07 0.244276261633D+01 0.558793544769D-07
    0.974720330020D+00 0.271250000000D+03 0.834190176672D+00-0.824677215405D-08
   -0.586095838528D-09 0.100000000000D+01 0.199500000000D+04 0.000000000000D+00
    0.200000000000D+01 0.000000000000D+00 0.558793544769D-08 0.100000000000D+03
    0.504300000000D+05 0.000000000000D+00 0.000000000000D+00 0.000000000000D+00
26 18  4  1 16  0  0.0-0.197523273528D-03 0.131876731757D-10 0.000000000000D+00
    0.310000000000D+02-0.907812500000D+02 0.483412998520D-08 0.667865746421D+00
   -0.466965138912D-05 0.277967203874D-02 0.542402267456D-05 0.515363374901D+04
    0.576000000000D+05-0.149011611938D-07 0.242181656990D+01-0.204890966415D-07
    0.956271518399D+00 0.267218750000D+03 0.905360149370D-01-0.841213587677D-08
   -0.576095449123D-09 0.100000000000D+01 0.199500000000D+04 0.000000000000D+00
    0.200000000000D+01 0.000000000000D+00 0.745058059692D-08 0.310000000000D+02
    0.504300000000D+05 0.000000000000D+00 0.000000000000D+00 0.000000000000D+00
